{"fetched_at":"2026-03-29T16:36:15Z","count":15609,"tles":[{"name":"STARLINK-35826","line1":"1 66375U 25254AD  26087.87785182  .00021438  00000+0  73390-3 0  9996","line2":"2 66375  53.1601 140.4259 0001490  83.1916 276.9255 15.30198057 21954","category":"Starlink"}]}